*******************************************************************************
 Revised: May 16, 2025             Gaia Observatory                     -139479
                               http://sci.esa.int/gaia/
                   https://www.cosmos.esa.int/web/gaia/iow_20250327
                     https://www.youtube.com/watch?v=8RznHsG12t0

 NOTE: Science observations ended 2025-Jan-25 due to decreasing attitude 
  control propellant. On March 28, 2025, after engineering tests, Gaia left 
  its orbit around Earth-Sun L2 and was placed in a heliocentric disposal orbit.
  It will return to the Earth's vicinity every 14 years, but at a distance of
  ~10 million km.

 BACKGROUND:
  Gaia is designed and operated by the European Space Agency. It launched
  December 19, 2013 @ 09:12 UTC on a Soyuz launcher from Kourou, French Guiana.

  On 2014-Jan-08, it arrived at its operational Lissajous orbit around the 
  gravitationally stable Earth-Sun Lagrange-point L2, roughly 1.5 million km 
  from Earth in the direction opposite the Sun.  The orbit is not shadowed by 
  Earth eclipses. The orbit period is about 180 days; the size of the orbit 
  is typically 340,000 x 90,000 km. 
 
 MISSION:
  Gaia's 5-year primary mission is to ... 

    * Measure the positions of ~1 billion stars both in our Galaxy and other 
       members of the Local Group, with an accuracy down to 24 uas 
    * Perform spectral and photometric measurements of all objects 
    * Derive space velocities of the Galaxy's constituent stars using the 
       stellar distances and motions
    * Create a three-dimensional structural map of the Galaxy

  Additional expected results include extrasolar planet detection, brown dwarf 
  detection, solar system asteroid discoveries, supernova early detection, and 
  testing of Einstein's general relativity.
 
 GAIA SPACECRAFT: 
  Spacecraft dry mass total       1392 kg
  Propellant                       237 kg
  Total launch mass               2029 kg
  Power: 12.8 m^2 solar array provides up to 1910 Watts

 SCIENCE INSTRUMENTS:
  Single integrated instrument that comprises three major functions: 
  astrometry, photometry (320-1000 nm) and spectrometry (846-874 nm). 

  The three functions use two common telescopes and a shared focal plane, 
  with each function having a dedicated area on the large 0.5m x 1m CCD 
  detector array.

 SPACECRAFT TRAJECTORY (From ESOC 2025-Apr-14 16:41. Final reconstruction
  through 2025-Mar-28 end-of-mission, with 100 year prediction):

  Trajectory name                                    Start         Stop
  --------------------------------------------    -----------   -----------
  ORB1_20250414_000001                            2013-Dec-19   2125-Mar-28 
*******************************************************************************


*******************************************************************************
Ephemeris / WWW_USER Tue Apr 14 14:27:36 2026 Pasadena, USA      / Horizons    
*******************************************************************************
Target body name: Gaia (spacecraft) (-139479)     {source: gaia_merged}
Center body name: Earth (399)                     {source: gaia_merged}
Center-site name: GEOCENTRIC
*******************************************************************************
Start time      : A.D. 2014-Jan-01 00:00:00.0000 UT      
Stop  time      : A.D. 2025-Feb-15 00:00:00.0000 UT      
Step-size       : 1440 minutes
*******************************************************************************
Target pole/equ : undefined
Target radii    : undefined                                                    
Center geodetic : 0.0, 0.0, -6378.137             {E-lon(deg),Lat(deg),Alt(km)}
Center cylindric: 0.0, 0.0, 0.0                   {E-lon(deg),Dxy(km),Dz(km)}
Center pole/equ : ITRF93                          {East-longitude positive}
Center radii    : 6378.137, 6378.137, 6356.752 km {Equator_a, b, pole_c}       
Target primary  : Earth
Vis. interferer : MOON (R_eq= 1737.400) km        {source: gaia_merged}
Rel. light bend : Sun                             {source: gaia_merged}
Rel. lght bnd GM: 1.3271E+11 km^3/s^2                                          
Atmos refraction: NO (AIRLESS)
RA format       : DEG
Time format     : JD  
Calendar mode   : Mixed Julian/Gregorian
EOP file        : eop.260413.p260710                                           
EOP coverage    : DATA-BASED 1962-JAN-20 TO 2026-APR-13. PREDICTS-> 2026-JUL-09
Units conversion: 1 au= 149597870.700 km, c= 299792.458 km/s, 1 day= 86400.0 s 
Table cut-offs 1: Elevation (-90.0deg=NO ),Airmass (>38.000=NO), Daylight (NO )
Table cut-offs 2: Solar elongation (  0.0,180.0=NO ),Local Hour Angle( 0.0=NO )
Table cut-offs 3: RA/DEC angular rate (     0.0=NO )                           
*******************************************************************************
Date_________JDUT     R.A.___(ICRF)___DEC             delta      deldot
***********************************************************************
$$SOE
2457693.500000000      48.94225  19.32578  0.01011690487494   0.0365614
2457694.500000000      49.89921  19.33714  0.01013844635027   0.0380204
2457695.500000000      50.84191  19.33976  0.01016080635353   0.0393915
2457696.500000000      51.77284  19.33427  0.01018391641782   0.0406069
2457697.500000000      52.69336  19.32148  0.01020766760623   0.0416005
2457698.500000000      53.60476  19.30219  0.01023191209488   0.0423035
2457699.500000000      54.50823  19.27713  0.01025646156548   0.0426443
2457700.500000000      55.40480  19.24701  0.01028108526533   0.0425479
2457701.500000000      56.29529  19.21246  0.01030550881608   0.0419388
2457702.500000000      57.18022  19.17402  0.01032941570786   0.0407484
2457703.500000000      58.05971  19.13214  0.01035245462693   0.0389274
2457704.500000000      58.93341  19.08713  0.01037425597149   0.0364652
2457705.500000000      59.80042  19.03919  0.01039445993483   0.0334095
2457706.500000000      60.65932  18.98837  0.01041275481150   0.0298801
2457707.500000000      61.50822  18.93462  0.01042891849544   0.0260651
2457708.500000000      62.34503  18.87782  0.01044285118985   0.0221938
2457709.500000000      63.16767  18.81785  0.01045458745843   0.0184946
2457710.500000000      63.97431  18.75463  0.01046428361458   0.0151553
2457711.500000000      64.76354  18.68816  0.01047218681436   0.0123011
2457712.500000000      65.53445  18.61855  0.01047859810214   0.0099947
2457713.500000000      66.28660  18.54598  0.01048383981760   0.0082500
2457714.500000000      67.02003  18.47074  0.01048823217446   0.0070485
2457715.500000000      67.73516  18.39321  0.01049207899669   0.0063537
2457716.500000000      68.43271  18.31379  0.01049566005124   0.0061201
2457717.500000000      69.11371  18.23294  0.01049922741859   0.0062977
2457718.500000000      69.77939  18.15115  0.01050300341679   0.0068335
2457719.500000000      70.43120  18.06894  0.01050717873304   0.0076707
2457720.500000000      71.07076  17.98682  0.01051191003972   0.0087481
2457721.500000000      71.69984  17.90532  0.01051731692680   0.0099985
2457722.500000000      72.32034  17.82495  0.01052347846051   0.0113487
2457723.500000000      72.93422  17.74621  0.01053042980510   0.0127200
2457724.500000000      73.54350  17.66958  0.01053815927120   0.0140291
2457725.500000000      74.15016  17.59551  0.01054660615475   0.0151898
2457726.500000000      74.75615  17.52438  0.01055565936614   0.0161141
2457727.500000000      75.36330  17.45655  0.01056515683795   0.0167135
2457728.500000000      75.97327  17.39231  0.01057488569160   0.0169009
2457729.500000000      76.58748  17.33187  0.01058458347162   0.0165925
2457730.500000000      77.20708  17.27538  0.01059394148693   0.0157129
2457731.500000000      77.83277  17.22292  0.01060261205936   0.0142043
2457732.500000000      78.46484  17.17448  0.01061022219521   0.0120396
2457733.500000000      79.10299  17.12999  0.01061639614593   0.0092392
2457734.500000000      79.74637  17.08930  0.01062078751837   0.0058863
2457735.500000000      80.39360  17.05224  0.01062311779024   0.0021323
2457736.500000000      81.04293  17.01862  0.01062321306645  -0.0018155
2457737.500000000      81.69247  16.98826  0.01062102793025  -0.0057262
2457738.500000000      82.34037  16.96105  0.01061664741156  -0.0093857
2457739.500000000      82.98513  16.93691  0.01061026667680  -0.0126308
2457740.500000000      83.62564  16.91586  0.01060215682564  -0.0153623
2457741.500000000      84.26128  16.89795  0.01059262855870  -0.0175401
2457742.500000000      84.89191  16.88329  0.01058200236480  -0.0191676
2457743.500000000      85.51780  16.87201  0.01057058832560  -0.0202746
2457744.500000000      86.13955  16.86426  0.01055867493660  -0.0209045
2457745.500000000      86.75805  16.86020  0.01054652394770  -0.0211056
2457746.500000000      87.37445  16.85996  0.01053436863874  -0.0209278
2457747.500000000      87.99008  16.86368  0.01052241318993  -0.0204222
2457748.500000000      88.60649  16.87146  0.01051083162582  -0.0196424
2457749.500000000      89.22539  16.88339  0.01049976553646  -0.0186475
2457750.500000000      89.84864  16.89952  0.01048932036578  -0.0175040
2457751.500000000      90.47820  16.91987  0.01047953391903  -0.0163938
2457752.500000000      91.11617  16.94439  0.01047041626992  -0.0151887
2457753.500000000      91.76470  16.97304  0.01046196941202  -0.0140867
2457754.500000000      92.42592  17.00568  0.01045410612792  -0.0131837
2457755.500000000      93.10183  17.04214  0.01044668368035  -0.0125763
2457756.500000000      93.79431  17.08218  0.01043950435214  -0.0123566
2457757.500000000      94.50495  17.12554  0.01043231951307  -0.0126083
2457758.500000000      95.23505  17.17187  0.01042483598521  -0.0134012
2457759.500000000      95.98551  17.22084  0.01041672560070  -0.0147853
2457760.500000000      96.75677  17.27205  0.01040763870940  -0.0167837
2457761.500000000      97.54873  17.32511  0.01039722267270  -0.0193820
